ORBCOMM FM103           
1 40091U 14040F   24176.35524267  .00000657  00000+0  18297-3 0  9994
2 40091  47.0061 265.9396 0000848  65.6487 294.4486 14.56708480511906
ORBCOMM FM114           
1 41179U 15081A   24176.38703099  .00000979  00000+0  25384-3 0  9995
2 41179  47.0012 175.0390 0000748 183.9321 176.1558 14.56776132452274
ORBCOMM FM119           
1 41180U 15081B   24176.22224770  .00000826  00000+0  22043-3 0  9994
2 41180  47.0014  85.0203 0001536 227.0042 133.0714 14.56687990453503
ORBCOMM FM105           
1 41181U 15081C   24176.09210184  .00000380  00000+0  15433-3 0  9994
2 41181  47.0028  56.6388 0001591 171.4414 188.6493 14.44446095448963
ORBCOMM FM110           
1 41182U 15081D   24176.43305874  .00000983  00000+0  25482-3 0  9998
2 41182  47.0002 174.2289 0002829 312.7379  47.3268 14.56770279452152
ORBCOMM FM118           
1 41183U 15081E   24176.41080154  .00000733  00000+0  19960-3 0  9995
2 41183  47.0025 174.6532 0002915 311.2478  48.8156 14.56754775452259
ORBCOMM FM112           
1 41184U 15081F   24176.19879625  .00001093  00000+0  27975-3 0  9995
2 41184  46.9997  84.3333 0001415 200.2929 159.7899 14.56657756453443
ORBCOMM FM113           
1 41185U 15081G   24176.24464905  .00001014  00000+0  26229-3 0  9997
2 41185  47.0015  84.3917 0001284 220.7680 139.3109 14.56657659453439
